CCSDS_OMM_VERS = 2.0
CREATION_DATE  = 
ORIGINATOR     = 

OBJECT_NAME    = SL-4 R/B
OBJECT_ID      = 2014-021B
CENTER_NAME    = EARTH
REF_FRAME      = TEME
TIME_SYSTEM    = UTC
MEAN_ELEMENT_THEORY = SGP/SGP4

EPOCH          = 2025-12-13T07:56:53.464704
MEAN_MOTION    = 15.36694990
ECCENTRICITY   = .01016414
INCLINATION    = 51.6090
RA_OF_ASC_NODE = 37.7195
ARG_OF_PERICENTER = 148.2454
MEAN_ANOMALY   = 212.4714

EPHEMERIS_TYPE = 0
CLASSIFICATION_TYPE = U
NORAD_CAT_ID   = 39679
ELEMENT_SET_NO = 999
REV_AT_EPOCH   = 64298
BSTAR          = .41810408E-3
MEAN_MOTION_DOT = .17718E-3
MEAN_MOTION_DDOT = 0

CCSDS_OMM_VERS = 2.0
CREATION_DATE  = 
ORIGINATOR     = 

OBJECT_NAME    = ALOS-2
OBJECT_ID      = 2014-029A
CENTER_NAME    = EARTH
REF_FRAME      = TEME
TIME_SYSTEM    = UTC
MEAN_ELEMENT_THEORY = SGP/SGP4

EPOCH          = 2025-12-12T12:57:47.930112
MEAN_MOTION    = 14.79474197
ECCENTRICITY   = .00014
INCLINATION    = 97.9217
RA_OF_ASC_NODE = 81.3886
ARG_OF_PERICENTER = 99.6977
MEAN_ANOMALY   = 260.4393

EPHEMERIS_TYPE = 0
CLASSIFICATION_TYPE = U
NORAD_CAT_ID   = 39766
ELEMENT_SET_NO = 999
REV_AT_EPOCH   = 62398
BSTAR          = .62702076E-3
MEAN_MOTION_DOT = .4634E-4
MEAN_MOTION_DDOT = 0

CCSDS_OMM_VERS = 2.0
CREATION_DATE  = 
ORIGINATOR     = 

OBJECT_NAME    = YAOGAN-29
OBJECT_ID      = 2015-069A
CENTER_NAME    = EARTH
REF_FRAME      = TEME
TIME_SYSTEM    = UTC
MEAN_ELEMENT_THEORY = SGP/SGP4

EPOCH          = 2025-12-13T16:43:25.273056
MEAN_MOTION    = 14.82885115
ECCENTRICITY   = .00000995
INCLINATION    = 98.0223
RA_OF_ASC_NODE = 10.8716
ARG_OF_PERICENTER = 281.8676
MEAN_ANOMALY   = 78.2526

EPHEMERIS_TYPE = 0
CLASSIFICATION_TYPE = U
NORAD_CAT_ID   = 41038
ELEMENT_SET_NO = 999
REV_AT_EPOCH   = 54313
BSTAR          = .14713133E-3
MEAN_MOTION_DOT = .1138E-4
MEAN_MOTION_DDOT = 0

CCSDS_OMM_VERS = 2.0
CREATION_DATE  = 
ORIGINATOR     = 

OBJECT_NAME    = ASTRO-H (HITOMI)
OBJECT_ID      = 2016-012A
CENTER_NAME    = EARTH
REF_FRAME      = TEME
TIME_SYSTEM    = UTC
MEAN_ELEMENT_THEORY = SGP/SGP4

EPOCH          = 2025-12-13T16:22:15.959424
MEAN_MOTION    = 15.09361801
ECCENTRICITY   = .00095622
INCLINATION    = 30.9981
RA_OF_ASC_NODE = 191.2977
ARG_OF_PERICENTER = 188.6746
MEAN_ANOMALY   = 171.3727

EPHEMERIS_TYPE = 0
CLASSIFICATION_TYPE = U
NORAD_CAT_ID   = 41337
ELEMENT_SET_NO = 999
REV_AT_EPOCH   = 53922
BSTAR          = .26079359E-3
MEAN_MOTION_DOT = .4365E-4
MEAN_MOTION_DDOT = 0

CCSDS_OMM_VERS = 2.0
CREATION_DATE  = 
ORIGINATOR     = 

OBJECT_NAME    = HXMT (HUIYAN)
OBJECT_ID      = 2017-034A
CENTER_NAME    = EARTH
REF_FRAME      = TEME
TIME_SYSTEM    = UTC
MEAN_ELEMENT_THEORY = SGP/SGP4

EPOCH          = 2025-12-13T15:32:00.477600
MEAN_MOTION    = 15.16255230
ECCENTRICITY   = .00313998
INCLINATION    = 43.0128
RA_OF_ASC_NODE = 134.5922
ARG_OF_PERICENTER = 49.2839
MEAN_ANOMALY   = 311.0729

EPHEMERIS_TYPE = 0
CLASSIFICATION_TYPE = U
NORAD_CAT_ID   = 42758
ELEMENT_SET_NO = 999
REV_AT_EPOCH   = 46947
BSTAR          = .30409966E-3
MEAN_MOTION_DOT = .5827E-4
MEAN_MOTION_DDOT = 0

CCSDS_OMM_VERS = 2.0
CREATION_DATE  = 
ORIGINATOR     = 

OBJECT_NAME    = CZ-2C R/B
OBJECT_ID      = 2018-054D
CENTER_NAME    = EARTH
REF_FRAME      = TEME
TIME_SYSTEM    = UTC
MEAN_ELEMENT_THEORY = SGP/SGP4

EPOCH          = 2025-12-13T13:25:00.514272
MEAN_MOTION    = 15.74319745
ECCENTRICITY   = .00152373
INCLINATION    = 35.1324
RA_OF_ASC_NODE = 175.3428
ARG_OF_PERICENTER = 152.6006
MEAN_ANOMALY   = 207.5533

EPHEMERIS_TYPE = 0
CLASSIFICATION_TYPE = U
NORAD_CAT_ID   = 43521
ELEMENT_SET_NO = 999
REV_AT_EPOCH   = 41518
BSTAR          = .69525626E-3
MEAN_MOTION_DOT = .106224E-2
MEAN_MOTION_DDOT = 0

CCSDS_OMM_VERS = 2.0
CREATION_DATE  = 
ORIGINATOR     = 

OBJECT_NAME    = SAOCOM 1A
OBJECT_ID      = 2018-076A
CENTER_NAME    = EARTH
REF_FRAME      = TEME
TIME_SYSTEM    = UTC
MEAN_ELEMENT_THEORY = SGP/SGP4

EPOCH          = 2025-12-13T14:48:32.681088
MEAN_MOTION    = 14.82161232
ECCENTRICITY   = .0001486
INCLINATION    = 97.8848
RA_OF_ASC_NODE = 172.0264
ARG_OF_PERICENTER = 81.1426
MEAN_ANOMALY   = 278.9955

EPHEMERIS_TYPE = 0
CLASSIFICATION_TYPE = U
NORAD_CAT_ID   = 43641
ELEMENT_SET_NO = 999
REV_AT_EPOCH   = 38861
BSTAR          = .17457301E-3
MEAN_MOTION_DOT = .1338E-4
MEAN_MOTION_DDOT = 0

CCSDS_OMM_VERS = 2.0
CREATION_DATE  = 
ORIGINATOR     = 

OBJECT_NAME    = H-2A R/B
OBJECT_ID      = 2018-084L
CENTER_NAME    = EARTH
REF_FRAME      = TEME
TIME_SYSTEM    = UTC
MEAN_ELEMENT_THEORY = SGP/SGP4

EPOCH          = 2025-12-13T12:55:35.289696
MEAN_MOTION    = 15.37409172
ECCENTRICITY   = .0027301
INCLINATION    = 98.8775
RA_OF_ASC_NODE = 181.7831
ARG_OF_PERICENTER = 323.8059
MEAN_ANOMALY   = 36.1332

EPHEMERIS_TYPE = 0
CLASSIFICATION_TYPE = U
NORAD_CAT_ID   = 43682
ELEMENT_SET_NO = 999
REV_AT_EPOCH   = 39252
BSTAR          = .56599994E-3
MEAN_MOTION_DOT = .20944E-3
MEAN_MOTION_DDOT = 0

CCSDS_OMM_VERS = 2.0
CREATION_DATE  = 
ORIGINATOR     = 

OBJECT_NAME    = SAOCOM 1B
OBJECT_ID      = 2020-059A
CENTER_NAME    = EARTH
REF_FRAME      = TEME
TIME_SYSTEM    = UTC
MEAN_ELEMENT_THEORY = SGP/SGP4

EPOCH          = 2025-12-13T15:33:32.414112
MEAN_MOTION    = 14.82161672
ECCENTRICITY   = .00012565
INCLINATION    = 97.8844
RA_OF_ASC_NODE = 171.1576
ARG_OF_PERICENTER = 83.0734
MEAN_ANOMALY   = 277.0622

EPHEMERIS_TYPE = 0
CLASSIFICATION_TYPE = U
NORAD_CAT_ID   = 46265
ELEMENT_SET_NO = 999
REV_AT_EPOCH   = 28600
BSTAR          = .85309913E-4
MEAN_MOTION_DOT = .627E-5
MEAN_MOTION_DDOT = 0

CCSDS_OMM_VERS = 2.0
CREATION_DATE  = 
ORIGINATOR     = 

OBJECT_NAME    = CSS (TIANHE)
OBJECT_ID      = 2021-035A
CENTER_NAME    = EARTH
REF_FRAME      = TEME
TIME_SYSTEM    = UTC
MEAN_ELEMENT_THEORY = SGP/SGP4

EPOCH          = 2025-12-13T13:08:11.407200
MEAN_MOTION    = 15.59213599
ECCENTRICITY   = .0008179
INCLINATION    = 41.4684
RA_OF_ASC_NODE = 11.8051
ARG_OF_PERICENTER = 37.3165
MEAN_ANOMALY   = 322.8241

EPHEMERIS_TYPE = 0
CLASSIFICATION_TYPE = U
NORAD_CAT_ID   = 48274
ELEMENT_SET_NO = 999
REV_AT_EPOCH   = 26415
BSTAR          = .29086041E-3
MEAN_MOTION_DOT = .23242E-3
MEAN_MOTION_DDOT = 0

CCSDS_OMM_VERS = 2.0
CREATION_DATE  = 
ORIGINATOR     = 

OBJECT_NAME    = COSMOS 2550
OBJECT_ID      = 2021-056A
CENTER_NAME    = EARTH
REF_FRAME      = TEME
TIME_SYSTEM    = UTC
MEAN_ELEMENT_THEORY = SGP/SGP4

EPOCH          = 2025-12-12T08:02:07.043136
MEAN_MOTION    = 15.33834191
ECCENTRICITY   = .00083954
INCLINATION    = 67.1456
RA_OF_ASC_NODE = 305.1584
ARG_OF_PERICENTER = 269.9074
MEAN_ANOMALY   = 90.1118

EPHEMERIS_TYPE = 0
CLASSIFICATION_TYPE = U
NORAD_CAT_ID   = 48865
ELEMENT_SET_NO = 999
REV_AT_EPOCH   = 25006
BSTAR          = .5784717E-5
MEAN_MOTION_DOT = -.1E-7
MEAN_MOTION_DDOT = 0

CCSDS_OMM_VERS = 2.0
CREATION_DATE  = 
ORIGINATOR     = 

OBJECT_NAME    = CZ-2C R/B
OBJECT_ID      = 2022-058K
CENTER_NAME    = EARTH
REF_FRAME      = TEME
TIME_SYSTEM    = UTC
MEAN_ELEMENT_THEORY = SGP/SGP4

EPOCH          = 2025-12-13T10:51:32.216544
MEAN_MOTION    = 15.48556591
ECCENTRICITY   = .00453002
INCLINATION    = 50.1910
RA_OF_ASC_NODE = 39.9139
ARG_OF_PERICENTER = 201.4055
MEAN_ANOMALY   = 158.5019

EPHEMERIS_TYPE = 0
CLASSIFICATION_TYPE = U
NORAD_CAT_ID   = 52794
ELEMENT_SET_NO = 999
REV_AT_EPOCH   = 19674
BSTAR          = .64870666E-3
MEAN_MOTION_DOT = .36404E-3
MEAN_MOTION_DDOT = 0

