SL-4 R/B                
1 39679U 14021B   25347.33117436  .00017718  00000+0  41810-3 0  9991
2 39679  51.6090  37.7195 0101641 148.2454 212.4714 15.36694990642982
ALOS-2                  
1 39766U 14029A   25346.54013808  .00004634  00000+0  62702-3 0  9992
2 39766  97.9217  81.3886 0001400  99.6977 260.4393 14.79474197623982
YAOGAN-29               
1 41038U 15069A   25347.69682029  .00001138  00000+0  14713-3 0  9991
2 41038  98.0223  10.8716 0000099 281.8676  78.2526 14.82885115543130
ASTRO-H (HITOMI)        
1 41337U 16012A   25347.68212916  .00004365  00000+0  26079-3 0  9998
2 41337  30.9981 191.2977 0009562 188.6746 171.3727 15.09361801539221
HXMT (HUIYAN)           
1 42758U 17034A   25347.64722775  .00005827  00000+0  30410-3 0  9994
2 42758  43.0128 134.5922 0031399  49.2839 311.0729 15.16255230469475
CZ-2C R/B               
1 43521U 18054D   25347.55903373  .00106224  00000+0  69526-3 0  9994
2 43521  35.1324 175.3428 0015237 152.6006 207.5533 15.74319745415183
SAOCOM 1A               
1 43641U 18076A   25347.61704492  .00001338  00000+0  17457-3 0  9995
2 43641  97.8848 172.0264 0001486  81.1426 278.9955 14.82161232388618
H-2A R/B                
1 43682U 18084L   25347.53860289  .00020944  00000+0  56600-3 0  9994
2 43682  98.8775 181.7831 0027301 323.8059  36.1332 15.37409172392529
SAOCOM 1B               
1 46265U 20059A   25347.64829183  .00000627  00000+0  85310-4 0  9996
2 46265  97.8844 171.1576 0001256  83.0734 277.0622 14.82161672286002
CSS (TIANHE)            
1 48274U 21035A   25347.54735425  .00023242  00000+0  29086-3 0  9992
2 48274  41.4684  11.8051 0008179  37.3165 322.8241 15.59213599264159
COSMOS 2550             
1 48865U 21056A   25346.33480374 -.00000001  00000+0  57847-5 0  9994
2 48865  67.1456 305.1584 0008395 269.9074  90.1118 15.33834191250061
CZ-2C R/B               
1 52794U 22058K   25347.45245621  .00036404  00000+0  64871-3 0  9999
2 52794  50.1910  39.9139 0045300 201.4055 158.5019 15.48556591196743
